310P/Hill,e,13.1282,8.9271,31.8635,4.177627,0.1154276,0.42172754,227.9256,09/06.0/2020,2000,g 13.5,4.0
# From MPC109593
311P/PANSTARRS,e,4.9699,279.2272,144.5814,2.188584,0.3044102,0.11537040,350.4328,09/06.0/2020,2000,g 17.0,4.0
# From MPEC 2020-K19
312P/NEAT,e,19.7681,144.6696,207.5273,3.466697,0.1526969,0.42791345,357.1009,09/06.0/2020,2000,g 16.0,4.0
# From MPEC 2020-K19
313P/Gibbs,e,10.9833,105.9720,254.6297,3.161464,0.1753362,0.23486216,25.2048,09/06.0/2020,2000,g 15.0,4.0
# From MPC105243
314P/Montani,e,3.9792,267.6189,214.2060,7.274260,0.0502367,0.41617481,71.7467,09/06.0/2020,2000,g  9.5,4.0
# From MPC115888
315P/LONEOS,e,17.8045,69.0853,65.6412,4.939814,0.0897714,0.52229222,123.3684,09/06.0/2020,2000,g 11.0,4.0
# From MPC 92279
316P/LONEOS-Christensen,e,9.8714,246.7388,193.7507,4.351513,0.1085784,0.15954093,193.2060,09/06.0/2020,2000,g 13.5,4.0
# From MPEC 2020-C98
317P/WISE,e,11.9510,275.5194,334.9108,2.964993,0.1930494,0.57040330,356.1029,09/06.0/2020,2000,g 17.5,4.0
# From MPC102103
318P/McNaught-Hartley,e,17.8736,35.6327,313.1217,7.496800,0.0480165,0.67499637,85.4263,09/06.0/2020,2000,g  8.5,6.0
# From MPC 97499
319P/Catalina-McNaught,e,15.0955,111.3799,203.6233,3.568584,0.1462043,0.66654284,276.4552,09/06.0/2020,2000,g 15.0,4.0
# From MPC 96281
320P/McNaught,e,4.9089,295.9305,0.7770,3.093740,0.1811250,0.68572444,335.8843,09/06.0/2020,2000,g 20.5,4.0
# From MPC105243
321P/SOHO,e,20.0558,165.0370,172.7293,2.423158,0.2612953,0.98107687,0.0000,01/17.2596/2020,2000,g 20.0,4.0
# From MPC102103
322P/SOHO,e,11.4605,351.4741,56.9300,2.508243,0.2481131,0.97977152,0.0000,08/31.4842/2019,2000,g 19.0,4.0
# From MPEC 2016-Y36
323P/SOHO,e,5.3384,324.3749,353.0513,2.582099,0.2375443,0.98484083,0.0000,01/17.7610/2021,2000,g 20.0,4.0
# From MPC108598
324P/La Sagra,e,21.4200,270.6454,57.9231,3.096636,0.1808710,0.15465010,316.0436,09/06.0/2020,2000,g 13.0,4.0
# From MPC114609
325P/Yang-Gao,e,16.6986,257.5774,343.6850,3.524090,0.1489819,0.59369721,275.2197,09/06.0/2020,2000,g 14.0,4.0
# From MPC103849
326P/Hill,e,2.4707,99.8143,278.5848,4.064343,0.1202870,0.31735718,214.2968,09/06.0/2020,2000,g 13.5,4.0
# From MPC 97499
327P/Van Ness,e,36.2447,173.9739,185.0213,3.562853,0.1465572,0.56281289,253.5128,09/06.0/2020,2000,g 16.0,4.0
# From MPC109148
328P/LONEOS-Tucker,e,17.6690,341.6225,30.4813,4.195886,0.1146749,0.55168828,196.9735,09/06.0/2020,2000,g 14.5,4.0
# From MPC101101
329P/LINEAR-Catalina,e,21.6650,87.6837,343.5510,5.192826,0.0832911,0.67686724,145.0867,09/06.0/2020,2000,g 13.5,4.0
# From MPC105243
330P/Catalina,e,15.6943,293.0957,189.0033,6.632252,0.0577049,0.54865576,84.8617,09/06.0/2020,2000,g 12.0,4.0
# From MPC110497
331P/Gibbs,e,9.7397,216.7788,183.7308,3.003363,0.1893618,0.04067175,355.5396,09/06.0/2020,2000,g 12.0,4.0
# From MPEC 2016-K18
332P/Ikeya-Murakami,e,9.3803,3.7918,152.3647,3.088336,0.1816006,0.48942454,297.0820,09/06.0/2020,2000,g 18.0,4.0
# From MPEC 2016-EI8
332P-B/Ikeya-Murakami,e,9.3805,3.8028,152.3711,3.082329,0.1821317,0.48970701,359.9699,03/17.0/2016,2000,g 19.0,4.0
# From MPEC 2016-K18
332P-C/Ikeya-Murakami,e,9.3794,3.7922,152.3559,3.088302,0.1816035,0.48942996,297.0952,09/06.0/2020,2000,g 16.5,4.0
# From MPEC 2016-ED0
332P-D/Ikeya-Murakami,e,9.3761,3.7923,152.4393,3.081138,0.1822373,0.48977814,359.9486,03/17.0/2016,2000,g 19.0,4.0
# From MPEC 2016-ED0
332P-E/Ikeya-Murakami,e,9.3774,3.8228,152.2825,3.079877,0.1823493,0.48922008,359.9889,03/17.0/2016,2000,g 21.0,4.0
# From MPEC 2016-ED0
332P-F/Ikeya-Murakami,e,9.5293,3.4757,152.8203,3.163214,0.1751908,0.49918860,359.8501,03/17.0/2016,2000,g 21.0,4.0
# From MPEC 2016-ED0
332P-G/Ikeya-Murakami,e,9.2523,3.6955,154.4000,3.050519,0.1849880,0.49200362,359.9006,03/19.0/2016,2000,g 19.0,4.0
# From MPC100285
332P-H/Ikeya-Murakami,e,9.3799,3.7920,152.3566,3.088486,0.1815874,0.48946511,297.0357,09/06.0/2020,2000,g 19.0,4.0
# From MPEC 2016-ED0
332P-I/Ikeya-Murakami,e,9.3791,3.8048,152.3297,3.081767,0.1821815,0.48955490,359.9360,03/17.0/2016,2000,g 20.5,2.0
# From MPEC 2016-EI8
332P-J/Ikeya-Murakami,e,9.4296,3.6729,152.7712,3.115165,0.1792596,0.49429435,359.8613,03/17.0/2016,2000,g 20.5,2.0
# From MPEC 2020-L06
333P/LINEAR,e,131.9824,115.6272,26.0368,4.219228,0.1137246,0.73656360,184.1096,09/06.0/2020,2000,g 15.0,4.0
# From MPC115888
334P/NEAT,e,20.4778,90.7291,89.8924,6.837437,0.0551270,0.35346353,65.3388,09/06.0/2020,2000,g 10.5,4.0
# From MPC100285
335P/Gibbs,e,7.2918,330.8434,162.2357,3.578892,0.1455731,0.54528997,257.3149,09/06.0/2020,2000,g 17.0,4.0
# From MPC105244
336P/McNaught,e,17.8340,298.2257,308.7343,5.030571,0.0873531,0.44556547,114.5122,09/06.0/2020,2000,g 13.5,4.0
# From MPC115888
337P/WISE,e,15.3737,106.0719,160.9832,3.287664,0.1653381,0.49690358,250.3873,09/06.0/2020,2000,g 17.0,4.0
# From MPC104796
338P/McNaught,e,25.3714,9.7867,4.3965,3.898221,0.1280573,0.41106453,177.1898,09/06.0/2020,2000,g 12.0,4.0
# From MPC101101
339P/Gibbs,e,5.7353,172.7453,27.5250,3.695675,0.1387278,0.63583830,208.9206,09/06.0/2020,2000,g 17.0,4.0
# From MPC102957
340P/Boattini,e,2.0797,291.7279,35.7947,4.251566,0.1124296,0.28062314,155.8536,09/06.0/2020,2000,g 13.0,4.0
# From MPC109148
341P/Gibbs,e,3.7947,29.9950,312.1158,4.294453,0.1107497,0.41514459,172.9645,09/06.0/2020,2000,g 12.5,4.0
# From MPC101101
342P/SOHO,e,11.7487,29.9052,71.1904,3.044073,0.1855758,0.98313434,0.0000,10/19.0999/2021,2000,g  9.0,4.0
# From MPC109148
343P/NEAT-LONEOS,e,5.5833,257.2332,137.3722,5.461942,0.0772118,0.58379252,101.7011,09/06.0/2020,2000,g 14.0,4.0
# From MPC109148
344P/Read,e,3.4903,273.1889,140.4054,4.867536,0.0917784,0.42151203,128.9980,09/06.0/2020,2000,g 13.0,4.0
# From MPC109148
345P/LINEAR,e,2.7266,154.4995,196.3522,4.040161,0.1213685,0.22064038,183.5570,09/06.0/2020,2000,g 12.0,4.0
# From MPC110086
346P/Catalina,e,22.1854,102.4687,336.0135,4.476567,0.1040606,0.50229977,135.2893,09/06.0/2020,2000,g 14.0,4.0
# From MPC108599
347P/PANSTARRS,e,11.7480,261.0430,98.2979,3.607117,0.1438678,0.38540967,209.3189,09/06.0/2020,2000,g 15.0,4.0
# From MPC104796
348P/PANSTARRS,e,17.7381,312.9396,135.4216,3.153899,0.1759675,0.30654073,267.7949,09/06.0/2020,2000,g 14.0,4.0
# From MPC112394
349P/Lemmon,e,5.4910,331.7480,256.0522,3.572119,0.1459874,0.29938084,161.5929,09/06.0/2020,2000,g 14.0,4.0
# From MPC111775
350P/McNaught,e,7.3563,65.3840,140.8302,4.096476,0.1188744,0.09083060,117.9127,09/06.0/2020,2000,g 14.0,4.0
# From MPC105244
351P/Wiegert-PANSTARRS,e,12.7904,283.4493,352.6298,4.436940,0.1054578,0.29611263,184.8860,09/06.0/2020,2000,g 12.5,4.0
# From MPC110086
352P/Skiff,e,21.0090,28.0975,309.1341,6.635060,0.0576683,0.61813127,67.5752,09/06.0/2020,2000,g 11.5,4.0
# From MPEC 2020-AA5
353P/McNaught,e,28.4253,121.5630,230.3723,4.171480,0.1156828,0.46988601,114.4797,09/06.0/2020,2000,g 14.5,4.0
# From MPC105545
354P/LINEAR,e,5.2555,320.1290,133.0474,2.289999,0.2844141,0.12566343,37.4132,09/06.0/2020,2000,g 15.5,4.0
# From MPEC 2020-AA5
355P/LINEAR-NEAT,e,11.0359,51.4405,336.2493,3.472649,0.1523045,0.50682362,161.3294,09/06.0/2020,2000,g 15.5,2.0
# From MPC109148
356P/WISE,e,9.6351,160.7898,226.0250,4.160852,0.1161263,0.35462382,115.4318,09/06.0/2020,2000,g 14.0,4.0
# From MPC114609
357P/Hill,e,6.3097,44.5823,1.4226,4.462001,0.1045706,0.43446916,86.9215,09/06.0/2020,2000,g 15.5,4.0
# From MPEC 2020-HN5
358P/PANSTARRS,e,11.0571,85.7149,299.7350,3.148516,0.1764190,0.23810115,154.9994,09/06.0/2020,2000,g 18.0,4.0
# From MPC110086
359P/LONEOS,e,10.2653,149.7581,200.1271,4.639485,0.0986278,0.32389625,109.6711,09/06.0/2020,2000,g 13.5,4.0
# From MPC108599
360P/WISE,e,24.0962,2.1935,354.1131,3.702958,0.1383187,0.49860055,154.0948,09/06.0/2020,2000,g 19.5,6.0
# From MPC114609
361P/Spacewatch,e,13.8872,203.2542,219.1041,4.940614,0.0897496,0.43779707,71.5191,09/06.0/2020,2000,g 12.0,4.0
# From MPEC 2017-V13
362P/,e,15.5587,192.5863,53.6850,3.967684,0.1247092,0.27986455,183.8328,09/06.0/2020,2000,g 12.9,2.0
# From MPC114609
363P/Lemmon,e,5.0827,149.1450,338.8066,3.509375,0.1499199,0.54401994,134.4464,09/06.0/2020,2000,g 17.5,4.0
# From MPC114609
364P/PANSTARRS,e,12.1457,46.2086,211.9853,2.878879,0.2017757,0.72244965,162.3530,09/06.0/2020,2000,g 17.0,2.0
# From MPC111775
365P/PANSTARRS,e,9.8359,87.4010,66.2167,3.179159,0.1738744,0.57535667,163.0437,09/06.0/2020,2000,g 17.0,4.0
# From MPC114610
366P/Spacewatch,e,8.8594,70.7545,153.1672,3.495575,0.1508086,0.34848857,117.3150,09/06.0/2020,2000,g 15.0,4.0
# From MPC112395
367P/Catalina,e,8.4635,58.7166,172.9253,3.505213,0.1501870,0.28052457,121.3025,09/06.0/2020,2000,g 17.5,2.0
# From MPC114610
368P/NEAT,e,15.4831,257.9660,118.7767,5.526599,0.0758608,0.62616671,54.8186,09/06.0/2020,2000,g 14.0,4.0
# From MPC114610
369P/Hill,e,10.3105,47.3039,13.2105,4.385959,0.1073018,0.55418197,74.2486,09/06.0/2020,2000,g 15.0,4.0
# From MPC114610
370P/NEAT,e,19.3998,55.1380,356.7000,6.436790,0.0603532,0.61436131,49.4670,09/06.0/2020,2000,g 13.0,4.0
# From MPC114610
371P/LINEAR-Skiff,e,17.3775,67.3210,308.4512,4.181388,0.1152719,0.47638715,80.9564,09/06.0/2020,2000,g 16.0,4.0
# From MPEC 2020-K19
372P/McNaught,e,9.5097,325.8190,27.1618,4.502728,0.1031551,0.15257866,70.7703,09/06.0/2020,2000,g 13.5,4.0
# From MPC114610
373P/Rinner,e,13.7589,231.9499,221.1469,3.804972,0.1327935,0.39217460,68.5331,09/06.0/2020,2000,g 14.5,4.0
# From MPC114610
374P/Larson,e,10.7606,7.9146,51.5329,4.975140,0.0888170,0.46231745,53.6745,09/06.0/2020,2000,g 14.0,4.0
# From MPC114610
375P/Hill,e,17.3616,359.9468,119.4741,5.559344,0.0751915,0.65881239,46.9740,09/06.0/2020,2000,g 16.0,4.0
# From MPEC 2020-K19
376P/LONEOS,e,1.1938,314.8335,285.2395,5.868902,0.0693216,0.51826670,23.8073,09/06.0/2020,2000,g 12.5,4.0
# From MPC115888
377P/Scotti,e,9.0224,226.0593,354.9873,6.712729,0.0566703,0.25265678,3.2033,09/06.0/2020,2000,g  9.5,4.0
# From MPEC 2019-TG9
378P/McNaught,e,19.1031,94.5172,194.0915,6.376108,0.0612168,0.46976702,357.2373,09/06.0/2020,2000,g 12.0,4.0
# From MPC115889
